OBJECT_NAME,OBJECT_ID,EPOCH,MEAN_MOTION,ECCENTRICITY,INCLINATION,RA_OF_ASC_NODE,ARG_OF_PERICENTER,MEAN_ANOMALY,EPHEMERIS_TYPE,CLASSIFICATION_TYPE,NORAD_CAT_ID,ELEMENT_SET_NO,REV_AT_EPOCH,BSTAR,MEAN_MOTION_DOT,MEAN_MOTION_DDOT
HAWK-6B,2023-011A,2026-06-27T11:28:41.575872,15.23020357,.0001385,40.4994,292.0450,113.1741,246.9214,0,U,55324,999,18941,.18948E-3,.4359E-4,0
HAWK-6C,2023-011C,2026-06-27T00:26:48.933024,15.23009964,.00019895,40.4978,291.5638,81.8306,278.2729,0,U,55326,999,18935,.20276034E-3,.4677E-4,0
HAWK-6A,2023-011D,2026-06-27T11:27:50.250816,15.23018550,.0001568,40.4991,290.5116,82.7206,277.3781,0,U,55327,999,18942,.19164E-3,.4411E-4,0
HAWK-7A,2023-054P,2026-06-27T06:21:22.462848,15.27461670,.000349,97.2697,65.3461,34.2135,325.9329,0,U,56191,999,17856,.22063E-3,.5857E-4,0
HAWK-7B,2023-054R,2026-06-27T09:29:56.478048,15.27460525,.0003107,97.2724,63.7414,50.1597,309.9915,0,U,56193,999,17858,.20166E-3,.5347E-4,0
HAWK-7C,2023-054Y,2026-06-27T06:21:06.160032,15.27460003,.0002933,97.2700,64.3791,40.7643,319.3816,0,U,56200,999,17856,.21561E-3,.5722E-4,0
