HAWK-6B                 
1 55324U 23011A   26178.47825898  .00004359  00000+0  18948-3 0  9994
2 55324  40.4994 292.0450 0001385 113.1741 246.9214 15.23020357189417
HAWK-6C                 
1 55326U 23011C   26178.01862191  .00004677  00000+0  20276-3 0  9993
2 55326  40.4978 291.5638 0001989  81.8306 278.2729 15.23009964189354
HAWK-6A                 
1 55327U 23011D   26178.47766494  .00004411  00000+0  19164-3 0  9993
2 55327  40.4991 290.5116 0001568  82.7206 277.3781 15.23018550189429
HAWK-7A                 
1 56191U 23054P   26178.26484332  .00005857  00000+0  22063-3 0  9992
2 56191  97.2697  65.3461 0003490  34.2135 325.9329 15.27461670178562
HAWK-7B                 
1 56193U 23054R   26178.39579257  .00005347  00000+0  20166-3 0  9995
2 56193  97.2724  63.7414 0003107  50.1597 309.9915 15.27460525178582
HAWK-7C                 
1 56200U 23054Y   26178.26465463  .00005722  00000+0  21561-3 0  9990
2 56200  97.2700  64.3791 0002933  40.7643 319.3816 15.27460003178567
